{
  "links" : {
    "next" : "https://api.nasa.gov/neo/rest/v1/feed?start_date=2007-02-16&end_date=2007-02-16&detailed=true&api_key=t0TVs3DtDT2H8Oy2Zy8m2eVrNsAVKAexjcZXUckd",
    "prev" : "https://api.nasa.gov/neo/rest/v1/feed?start_date=2007-02-14&end_date=2007-02-14&detailed=true&api_key=t0TVs3DtDT2H8Oy2Zy8m2eVrNsAVKAexjcZXUckd",
    "self" : "https://api.nasa.gov/neo/rest/v1/feed?start_date=2007-02-15&end_date=2007-02-15&detailed=true&api_key=t0TVs3DtDT2H8Oy2Zy8m2eVrNsAVKAexjcZXUckd"
  },
  "element_count" : 8,
  "near_earth_objects" : {
    "2007-02-15" : [ {
      "links" : {
        "self" : "https://api.nasa.gov/neo/rest/v1/neo/3367903?api_key=t0TVs3DtDT2H8Oy2Zy8m2eVrNsAVKAexjcZXUckd"
      },
      "neo_reference_id" : "3367903",
      "name" : "(2007 CS26)",
      "nasa_jpl_url" : "http://ssd.jpl.nasa.gov/sbdb.cgi?sstr=3367903",
      "absolute_magnitude_h" : 21.1,
      "estimated_diameter" : {
        "kilometers" : {
          "estimated_diameter_min" : 0.160160338,
          "estimated_diameter_max" : 0.358129403
        },
        "meters" : {
          "estimated_diameter_min" : 160.1603379786,
          "estimated_diameter_max" : 358.1294030194
        },
        "miles" : {
          "estimated_diameter_min" : 0.0995189894,
          "estimated_diameter_max" : 0.2225312253
        },
        "feet" : {
          "estimated_diameter_min" : 525.4604432536,
          "estimated_diameter_max" : 1174.9652706022
        }
      },
      "is_potentially_hazardous_asteroid" : true,
      "close_approach_data" : [ {
        "close_approach_date" : "2007-02-15",
        "epoch_date_close_approach" : 1171526400000,
        "relative_velocity" : {
          "kilometers_per_second" : "14.8136141334",
          "kilometers_per_hour" : "53329.0108800906",
          "miles_per_hour" : "33136.5734549096"
        },
        "miss_distance" : {
          "astronomical" : "0.0520820191",
          "lunar" : "20.2599067688",
          "kilometers" : "7791359.5",
          "miles" : "4841326.5"
        },
        "orbiting_body" : "Earth"
      } ],
      "orbital_data" : {
        "orbit_id" : "20",
        "orbit_determination_date" : "2017-04-06 09:07:02",
        "orbit_uncertainty" : "5",
        "minimum_orbit_intersection" : ".0494511",
        "jupiter_tisserand_invariant" : "3.254",
        "epoch_osculation" : "2458000.5",
        "eccentricity" : ".5681506314144056",
        "semi_major_axis" : "2.330629801976425",
        "inclination" : "21.94881014485767",
        "ascending_node_longitude" : "143.7035159979595",
        "orbital_period" : "1299.596012496767",
        "perihelion_distance" : "1.006481008390288",
        "perihelion_argument" : "24.12475536914984",
        "aphelion_distance" : "3.654778595562562",
        "perihelion_time" : "2458063.912137168055",
        "mean_anomaly" : "342.4342571376144",
        "mean_motion" : ".2770091601838425",
        "equinox" : "J2000"
      }
    }, {
      "links" : {
        "self" : "https://api.nasa.gov/neo/rest/v1/neo/3368737?api_key=t0TVs3DtDT2H8Oy2Zy8m2eVrNsAVKAexjcZXUckd"
      },
      "neo_reference_id" : "3368737",
      "name" : "(2007 DM8)",
      "nasa_jpl_url" : "http://ssd.jpl.nasa.gov/sbdb.cgi?sstr=3368737",
      "absolute_magnitude_h" : 26.2,
      "estimated_diameter" : {
        "kilometers" : {
          "estimated_diameter_min" : 0.0152951935,
          "estimated_diameter_max" : 0.0342010925
        },
        "meters" : {
          "estimated_diameter_min" : 15.2951935344,
          "estimated_diameter_max" : 34.201092472
        },
        "miles" : {
          "estimated_diameter_min" : 0.0095039897,
          "estimated_diameter_max" : 0.021251567
        },
        "feet" : {
          "estimated_diameter_min" : 50.1810827555,
          "estimated_diameter_max" : 112.2083122258
        }
      },
      "is_potentially_hazardous_asteroid" : false,
      "close_approach_data" : [ {
        "close_approach_date" : "2007-02-15",
        "epoch_date_close_approach" : 1171526400000,
        "relative_velocity" : {
          "kilometers_per_second" : "10.9746825997",
          "kilometers_per_hour" : "39508.8573589218",
          "miles_per_hour" : "24549.2675072701"
        },
        "miss_distance" : {
          "astronomical" : "0.026146845",
          "lunar" : "10.1711235046",
          "kilometers" : "3911512.5",
          "miles" : "2430501.25"
        },
        "orbiting_body" : "Earth"
      } ],
      "orbital_data" : {
        "orbit_id" : "7",
        "orbit_determination_date" : "2017-04-06 09:06:56",
        "orbit_uncertainty" : "8",
        "minimum_orbit_intersection" : ".0153377",
        "jupiter_tisserand_invariant" : "6.067",
        "epoch_osculation" : "2454153.5",
        "eccentricity" : ".3687323933945438",
        "semi_major_axis" : ".9884750003878835",
        "inclination" : "7.568870249902558",
        "ascending_node_longitude" : "332.6475544074935",
        "orbital_period" : "358.9607483094399",
        "perihelion_distance" : ".6239922476841866",
        "perihelion_argument" : "61.35503728712087",
        "aphelion_distance" : "1.35295775309158",
        "perihelion_time" : "2454076.409143526602",
        "mean_anomaly" : "77.31404745818959",
        "mean_motion" : "1.00289516805237",
        "equinox" : "J2000"
      }
    }, {
      "links" : {
        "self" : "https://api.nasa.gov/neo/rest/v1/neo/3591760?api_key=t0TVs3DtDT2H8Oy2Zy8m2eVrNsAVKAexjcZXUckd"
      },
      "neo_reference_id" : "3591760",
      "name" : "(2011 YH40)",
      "nasa_jpl_url" : "http://ssd.jpl.nasa.gov/sbdb.cgi?sstr=3591760",
      "absolute_magnitude_h" : 22.9,
      "estimated_diameter" : {
        "kilometers" : {
          "estimated_diameter_min" : 0.0699125232,
          "estimated_diameter_max" : 0.1563291544
        },
        "meters" : {
          "estimated_diameter_min" : 69.9125232246,
          "estimated_diameter_max" : 156.3291544087
        },
        "miles" : {
          "estimated_diameter_min" : 0.0434416145,
          "estimated_diameter_max" : 0.097138403
        },
        "feet" : {
          "estimated_diameter_min" : 229.3718026961,
          "estimated_diameter_max" : 512.8909429502
        }
      },
      "is_potentially_hazardous_asteroid" : false,
      "close_approach_data" : [ {
        "close_approach_date" : "2007-02-15",
        "epoch_date_close_approach" : 1171526400000,
        "relative_velocity" : {
          "kilometers_per_second" : "7.5585092344",
          "kilometers_per_hour" : "27210.6332438944",
          "miles_per_hour" : "16907.6293064632"
        },
        "miss_distance" : {
          "astronomical" : "0.1393363938",
          "lunar" : "54.2018547058",
          "kilometers" : "20844428",
          "miles" : "12952127"
        },
        "orbiting_body" : "Earth"
      } ],
      "orbital_data" : {
        "orbit_id" : "34",
        "orbit_determination_date" : "2017-04-06 08:51:37",
        "orbit_uncertainty" : "3",
        "minimum_orbit_intersection" : ".0129371",
        "jupiter_tisserand_invariant" : "4.684",
        "epoch_osculation" : "2458000.5",
        "eccentricity" : ".3278018356427488",
        "semi_major_axis" : "1.397311325947181",
        "inclination" : "11.33753765186953",
        "ascending_node_longitude" : "294.2544619916206",
        "orbital_period" : "603.306765801755",
        "perihelion_distance" : ".9392701083372919",
        "perihelion_argument" : "220.8599317687762",
        "aphelion_distance" : "1.85535254355707",
        "perihelion_time" : "2457786.122129502856",
        "mean_anomaly" : "127.9217104028492",
        "mean_motion" : ".5967113588086215",
        "equinox" : "J2000"
      }
    } ]
  }
}